CZ-4B R/B               
1 28059U 03049C   19049.80473181 -.00000029  00000-0  48810-5 0  9993
2 28059  98.5036 315.5904 0050085 178.6298 222.3780 14.52552372812475
CZ-2C R/B               
1 28222U 04012C   19049.90028559  .00000507  00000-0  34622-4 0  9997
2 28222  97.6105   8.4748 0046053 248.5363 174.7650 15.09976084812905
SL-16 R/B               
1 28353U 04021B   19049.91018711  .00000141  00000-0  98959-4 0  9999
2 28353  70.9969 235.5468 0005544 329.3618  30.7180 14.14213186758635
CZ-2C R/B               
1 28480U 04046B   19049.82624021  .00000018  00000-0  22492-4 0  9996
2 28480  98.1477 115.4690 0141302 218.2896 255.2175 14.25693663741366
ARIANE 5 R/B            
1 28499U 04049H   19049.89457043  .00000016  00000-0  93183-5 0  9998
2 28499  98.0509 145.3681 0093091  40.1507  62.4916 14.79948298764424
CZ-2D R/B               
1 28738U 05024B   19049.91064048  .00000398  00000-0  27013-4 0  9991
2 28738  97.4287  82.2998 0013473  61.1969 299.0612 15.11724086748198
SUZAKU (ASTRO-EII)      
1 28773U 05025A   19049.95342940  .00000700  00000-0  30279-4 0  9990
2 28773  31.3824 285.4724 0004488  10.2335 349.8403 15.16912642750314
ALOS (DAICHI)           
1 28931U 06002A   19050.48190084  .00000082  00000-0  24645-4 0  9995
2 28931  97.8178  56.0003 0001054 118.8596 241.2706 14.62580202696954
H-2A R/B                
1 28932U 06002B   19049.92393237  .00000262  00000-0  30316-4 0  9990
2 28932  98.2653   9.4436 0090380 106.9719 305.0010 14.91897569708898
AKARI (ASTRO-F)         
1 28939U 06005A   19049.82583244  .00001703  00000-0  50609-4 0  9996
2 28939  98.1917 326.0462 0097861 217.2343 142.2085 15.31944299706646
RESURS-DK 1             
1 29228U 06021A   19050.34344377  .00000046  00000-0  10811-4 0  9997
2 29228  69.9372 340.2882 0002725 165.1628 194.9613 15.02406480700036
GENESIS 1               
1 29252U 06029A   19049.62820185  .00000372  00000-0  28258-4 0  9993
2 29252  64.5009  87.1006 0054031 259.2718 100.2318 15.17579019694510
CZ-4B R/B               
1 29507U 06046C   19049.94592898 -.00000416  00000-0 -27325-4 0  9992
2 29507  97.7837  67.7977 0046177 351.4395   8.6035 15.00447822672712
CZ-2C R/B               
1 31114U 07010B   19049.70614991 -.00000030  00000-0  49674-5 0  9997
2 31114  98.3297 288.3507 0058704 238.2275 121.3176 14.19289746614245
COSMO-SKYMED 1          
1 31598U 07023A   19050.49453421  .00000338  00000-0  48991-4 0  9994
2 31598  97.8864 235.5450 0001719  87.0043 273.1373 14.82160669633140
GENESIS 2               
1 31789U 07028A   19049.71216951  .00000313  00000-0  26110-4 0  9991
2 31789  64.5034 127.1045 0041077 304.5036  55.2210 15.16814211641648
COSMOS 2428             
1 31792U 07029A   19050.50650967 -.00000334  00000-0 -15487-3 0  9993
2 31792  70.9575 208.3339 0007260  67.0729 293.1157 14.12544946600533
SL-16 R/B               
1 31793U 07029B   19049.84391439  .00000075  00000-0  64142-4 0  9998
2 31793  70.9763 184.3378 0002696 274.2284 197.6968 14.14414491601166
KORONAS-FOTON           
1 33504U 09003A   19049.86236638 -.00000027  00000-0 -31820-5 0  9992
2 33504  82.4448 344.8799 0019920 151.0718 209.1623 15.15342728554099
H-2A R/B                
1 38341U 12025E   19050.44502601  .00000104  00000-0  19814-4 0  9998
2 38341  98.4341 171.1880 0055320 349.5004  10.5049 14.83849812365670
CUSAT 2 & FALCON 9 R/B  
1 39271U 13055G   19050.13942216  .00004172  00000-0  10266-3 0  9991
2 39271  80.9656  66.2095 0606153 181.9478 177.9358 14.43768835280745
SL-4 R/B                
1 39679U 14021B   19049.75913323 -.00000094  00000-0  14194-4 0  9995
2 39679  51.6149 195.9980 0173558  66.7874 295.1269 15.06005935265977
ALOS-2                  
1 39766U 14029A   19050.39519680 -.00000288  00000-0 -31735-4 0  9996
2 39766  97.9206 148.9420 0001508  83.5335 276.6035 14.79469406256120
SL-27 R/B               
1 40354U 14084B   19049.90811011  .00000770  00000-0  20469-4 0  9996
2 40354  74.7391 309.9772 0037614  21.8328 338.4476 15.39517781233551
ASTRO-H (HITOMI)        
1 41337U 16012A   19049.83877372  .00000214  00000-0  10431-4 0  9996
2 41337  31.0045 202.1127 0012574 322.1882  37.7869 14.98549315164744
TIANGONG-2              
1 41765U 16057A   19050.23104427  .00003372  00000-0  43950-4 0  9990
2 41765  42.7854 310.2515 0006965 178.3785 325.2921 15.60718398138607
SHENZHOU-11 MODULE      
1 41868U 16061G   19049.83963469  .00009847  00000-0  61327-4 0  9993
2 41868  42.7933 251.9322 0006097 281.3463 157.5249 15.77088718129164
